[{"OBJECT_NAME":"STARLINK-36211","OBJECT_ID":"2025-304AC","EPOCH":"2026-03-09T16:18:16.009344","MEAN_MOTION":14.98335083,"ECCENTRICITY":0.00034467,"INCLINATION":70.0017,"RA_OF_ASC_NODE":174.4561,"ARG_OF_PERICENTER":278.5173,"MEAN_ANOMALY":81.5596,"EPHEMERIS_TYPE":0,"CLASSIFICATION_TYPE":"U","NORAD_CAT_ID":67218,"ELEMENT_SET_NO":999,"REV_AT_EPOCH":1385,"BSTAR":0.00014363061,"MEAN_MOTION_DOT":1.621e-5,"MEAN_MOTION_DDOT":0},{"OBJECT_NAME":"NOAA 16 DEB","OBJECT_ID":"2000-055FT","EPOCH":"2026-03-09T11:21:21.418848","MEAN_MOTION":14.95188517,"ECCENTRICITY":0.00213748,"INCLINATION":98.8051,"RA_OF_ASC_NODE":256.9705,"ARG_OF_PERICENTER":245.6688,"MEAN_ANOMALY":114.2298,"EPHEMERIS_TYPE":0,"CLASSIFICATION_TYPE":"U","NORAD_CAT_ID":41267,"ELEMENT_SET_NO":999,"REV_AT_EPOCH":53609,"BSTAR":0.0049990459,"MEAN_MOTION_DOT":0.00055514,"MEAN_MOTION_DDOT":0}]
